     2.10           N: GPS NAV DATA                         RINEX VERSION / TYPE
teqc  2014Jan16     CORS-ADM Account    20140319 23:45:04UTCPGM / RUN BY / DATE
Solaris x86 5.10|AMD64|cc SC5.8 -xarch=amd64|=+|=+          COMMENT
     2              NAVIGATION DATA                         COMMENT
RINGO/GLOBAL        NATIONAL GEODETIC SURVEY                COMMENT
    2.8871D-08  7.4506D-09 -1.1921D-07  0.0000D+00          ION ALPHA
    1.3312D+05  0.0000D+00 -2.6214D+05  1.3107D+05          ION BETA
   -1.862645149231D-09-1.065814103640D-14   147456     1784 DELTA-UTC: A0,A1,T,W
                                                            END OF HEADER
26 14  3 14 18  0  0.0 1.388182863590D-04-1.102762325900D-11 0.000000000000D+00
    6.700000000000D+01-5.043750000000D+01 4.555189558890D-09 2.508229562350D+00
   -2.861022949220D-06 2.149796334560D-02 4.990026354790D-06 5.153681814190D+03
    4.968000000000D+05 1.601874828340D-07 1.867901749290D+00-2.495944499970D-07
    9.753377970200D-01 2.864062500000D+02 1.269599568630D+00-7.818182545810D-09
   -4.593048441580D-10 1.000000000000D+00 1.783000000000D+03 0.000000000000D+00
    2.000000000000D+00 0.000000000000D+00-6.053596735000D-09 6.700000000000D+01
    6.048000000000D+05
26 14  3 14 20  0  0.0 1.387391239400D-04-1.102762325900D-11 0.000000000000D+00
    7.000000000000D+01-4.893750000000D+01 4.608406244330D-09-2.724780280020D+00
   -2.665445208550D-06 2.149763936180D-02 5.049630999570D-06 5.153682413100D+03
    5.040000000000D+05 4.041939973830D-07 1.867843962560D+00-1.303851604460D-08
    9.753348960530D-01 2.846250000000D+02 1.269601104690D+00-7.898186134010D-09
   -2.275094766830D-10 1.000000000000D+00 1.783000000000D+03 0.000000000000D+00
    0.000000000000D+00 0.000000000000D+00-6.053596735000D-09 7.000000000000D+01
    4.968000000000D+05
26 14  3 15  0  0  0.0 1.385803334410D-04-1.102762325900D-11 0.000000000000D+00
    7.200000000000D+01-3.800000000000D+01 4.694124200460D-09-6.244540415550D-01
   -1.735985279080D-06 2.149862772780D-02 5.410984158520D-06 5.153681030270D+03
    5.184000000000D+05-2.048909664150D-07 1.867727331420D+00 2.346932888030D-07
    9.753291160640D-01 2.900000000000D+02 1.269629235140D+00-8.563571185510D-09
   -2.003654880900D-10 1.000000000000D+00 1.783000000000D+03 0.000000000000D+00
    2.000000000000D+00 0.000000000000D+00-6.053596735000D-09 7.200000000000D+01
    5.184000000000D+05
26 14  3 15  1 59 44.0 1.385021023450D-04-1.102762325900D-11 0.000000000000D+00
    1.000000000000D+00-3.912500000000D+01 4.611977821670D-09 4.233953820370D-01
   -2.143904566770D-06 2.149804856160D-02 5.010515451430D-06 5.153679939270D+03
    5.255840000000D+05-3.129243850710D-07 1.867666414040D+00-5.587935447690D-09
    9.753274132270D-01 2.947187500000D+02 1.269623228400D+00-8.546070263840D-09
   -3.485859485750D-10 1.000000000000D+00 1.783000000000D+03 0.000000000000D+00
    2.000000000000D+00 0.000000000000D+00-6.053596735000D-09 1.000000000000D+00
    5.226480000000D+05
26 14  3 15  2  0  0.0 1.385007053610D-04-1.102762325900D-11 0.000000000000D+00
    7.400000000000D+01-3.912500000000D+01 4.612334958410D-09 4.257289996990D-01
   -2.143904566770D-06 2.149804949290D-02 5.010515451430D-06 5.153679948810D+03
    5.256000000000D+05-3.129243850710D-07 1.867666285310D+00-5.587935447690D-09
    9.753274278560D-01 2.947187500000D+02 1.269623278140D+00-8.546070517920D-09
   -3.485859378930D-10 1.000000000000D+00 1.783000000000D+03 0.000000000000D+00
    2.000000000000D+00 0.000000000000D+00-6.053596735000D-09 7.400000000000D+01
    5.184000000000D+05
26 14  3 15  3 59 44.0 1.384230000000D-04-1.102760000000D-11 0.000000000000D+00
    2.000000000000D+00-4.503125000000D+01 4.545546483000D-09 1.473536727000D+00
   -2.678483725000D-06 2.149821061200D-02 4.857778549000D-06 5.153681347350D+03
    5.327840000000D+05-3.073364496000D-07 1.867604495000D+00-3.613531590000D-07
    9.753255260600D-01 2.981250000000D+02 1.269659936000D+00-8.361776870000D-09
   -2.778687172000D-10 1.000000000000D+00 1.783000000000D+03 0.000000000000D+00
    2.000000000000D+00 0.000000000000D+00-6.053596735000D-09 2.000000000000D+00
    5.256000000000D+05
26 14  3 15  6  0  0.0 1.383433118460D-04-1.102762325900D-11 0.000000000000D+00
    2.900000000000D+01-4.790625000000D+01 4.345895199260D-09 2.526027144290D+00
   -2.624467015270D-06 2.149832376740D-02 4.267320036890D-06 5.153681921000D+03
    5.400000000000D+05 2.291053533550D-07 1.867546710770D+00-1.527369022370D-07
    9.753258332760D-01 3.015000000000D+02 1.269678004440D+00-7.825683212560D-09
   -3.278708138320D-10 1.000000000000D+00 1.783000000000D+03 0.000000000000D+00
    2.000000000000D+00 0.000000000000D+00-6.053596735000D-09 2.900000000000D+01
    5.364300000000D+05
26 14  3 15  8  0  0.0 1.382641494270D-04-1.102762325900D-11 0.000000000000D+00
    3.000000000000D+01-4.803125000000D+01 4.371253581330D-09-2.706978059180D+00
   -2.449378371240D-06 2.149804064540D-02 4.429370164870D-06 5.153682418820D+03
    5.472000000000D+05 2.607703208920D-07 1.867490145580D+00-1.862645149230D-08
    9.753235555120D-01 2.985937500000D+02 1.269672875450D+00-7.824254133480D-09
   -2.639395646490D-10 1.000000000000D+00 1.783000000000D+03 0.000000000000D+00
    2.000000000000D+00 0.000000000000D+00-6.053596735000D-09 3.000000000000D+01
    5.400000000000D+05
26 14  3 15 10  0  0.0 1.381845213470D-04-1.102762325900D-11 0.000000000000D+00
    3.100000000000D+01-3.940625000000D+01 4.448756737150D-09-1.656849836390D+00
   -1.782551407810D-06 2.149857138280D-02 4.347413778310D-06 5.153680328370D+03
    5.544000000000D+05 4.209578037260D-07 1.867434323550D+00 2.626329660420D-07
    9.753208461880D-01 2.987812500000D+02 1.269719211920D+00-8.006047769740D-09
   -3.821587755900D-10 1.000000000000D+00 1.783000000000D+03 0.000000000000D+00
    2.000000000000D+00 0.000000000000D+00-6.053596735000D-09 3.100000000000D+01
    5.472180000000D+05
26 14  3 15 12  0  0.0 1.381053589280D-04-1.102762325900D-11 0.000000000000D+00
    3.200000000000D+01-3.581250000000D+01 4.728768400760D-09-6.066727082510D-01
   -1.648440957070D-06 2.149878523780D-02 4.623085260390D-06 5.153680456160D+03
    5.616000000000D+05-2.123415470120D-07 1.867373967940D+00 2.160668373110D-07
    9.753152841740D-01 2.989062500000D+02 1.269719855600D+00-8.642502852080D-09
   -3.543004723230D-10 1.000000000000D+00 1.783000000000D+03 0.000000000000D+00
    2.000000000000D+00 0.000000000000D+00-6.053596735000D-09 3.200000000000D+01
    5.592360000000D+05
26 14  3 15 14  0  0.0 1.380257308480D-04-1.102762325900D-11 0.000000000000D+00
    3.300000000000D+01-3.587500000000D+01 4.763412700970D-09 4.435139507990D-01
   -1.678243279460D-06 2.149826986720D-02 4.541128873830D-06 5.153679477690D+03
    5.688000000000D+05-2.775341272350D-07 1.867312147950D+00 2.980232238770D-08
    9.753125572940D-01 3.035937500000D+02 1.269711306310D+00-8.635359697390D-09
   -4.610906348470D-10 1.000000000000D+00 1.783000000000D+03 0.000000000000D+00
    2.000000000000D+00 0.000000000000D+00-6.053596735000D-09 3.300000000000D+01
    5.616180000000D+05
26 14  3 15 16  0  0.0 1.379461027680D-04-1.102762325900D-11 0.000000000000D+00
    3.600000000000D+01-3.934375000000D+01 4.769127224720D-09 1.493669983660D+00
   -2.497807145120D-06 2.149821678180D-02 4.431232810020D-06 5.153680219650D+03
    5.760000000000D+05-3.427267074590D-07 1.867249394610D+00-3.781169652940D-07
    9.753104053420D-01 3.077500000000D+02 1.269735457620D+00-8.376420340100D-09
   -3.185846989030D-10 1.000000000000D+00 1.783000000000D+03 0.000000000000D+00
    2.000000000000D+00 0.000000000000D+00-6.053596735000D-09 3.600000000000D+01
    5.688180000000D+05
26 14  3 15 18  0  0.0 1.378669403490D-04-1.102762325900D-11 0.000000000000D+00
    5.900000000000D+01-4.128125000000D+01 4.641264755880D-09 2.543817969010D+00
   -2.408400177960D-06 2.149818022730D-02 3.620982170100D-06 5.153681312560D+03
    5.832000000000D+05 1.396983861920D-07 1.867191258250D+00-2.421438694000D-07
    9.753100498530D-01 3.130312500000D+02 1.269764752560D+00-7.931758961030D-09
   -3.496574217780D-10 1.000000000000D+00 1.783000000000D+03 0.000000000000D+00
    2.000000000000D+00 0.000000000000D+00-6.053596735000D-09 5.900000000000D+01
    5.760180000000D+05
26 14  3 15 20  0  0.0 1.377873122690D-04-1.102762325900D-11 0.000000000000D+00
    6.000000000000D+01-4.287500000000D+01 4.706624423530D-09-2.689183822940D+00
   -2.343207597730D-06 2.149818593170D-02 3.656372427940D-06 5.153681295400D+03
    5.904000000000D+05 3.743916749950D-07 1.867132615720D+00 1.862645149230D-09
    9.753079900640D-01 3.118750000000D+02 1.269759576750D+00-8.009619634210D-09
   -1.135761623640D-10 1.000000000000D+00 1.783000000000D+03 0.000000000000D+00
    2.000000000000D+00 0.000000000000D+00-6.053596735000D-09 6.000000000000D+01
    5.860200000000D+05
26 14  3 15 22  0  0.0 1.377081498500D-04-1.102762325900D-11 0.000000000000D+00
    7.900000000000D+01-3.625000000000D+01 4.646979245850D-09-1.639043389170D+00
   -1.462176442150D-06 2.149855520110D-02 3.598630428310D-06 5.153679670330D+03
    5.976000000000D+05 3.743916749950D-07 1.867075098170D+00 2.477318048480D-07
    9.753070713510D-01 3.110937500000D+02 1.269796623690D+00-8.099623194370D-09
   -1.246480557660D-10 1.000000000000D+00 1.783000000000D+03 0.000000000000D+00
    2.000000000000D+00 0.000000000000D+00-6.053596735000D-09 7.900000000000D+01
    5.904000000000D+05
27 14  3 14 23 59 44.0-2.035498619080D-05-2.273736754430D-13 0.000000000000D+00
    2.400000000000D+01-5.075000000000D+01 4.939134306200D-09 7.483006514170D-01
   -2.600252628330D-06 9.442298905920D-04 2.788379788400D-06 5.153668586730D+03
    5.183840000000D+05 1.117587089540D-08-1.373955418090D+00 1.117587089540D-08
    9.623181918440D-01 3.213125000000D+02 3.549579515950D-02-8.532855427680D-09
   -3.782300405140D-10 1.000000000000D+00 1.783000000000D+03 0.000000000000D+00
    2.000000000000D+00 0.000000000000D+00 1.862645149230D-09 2.400000000000D+01
    5.149860000000D+05
